[{"OBJECT_NAME":"STARLINK-4539","OBJECT_ID":"2022-097AM","EPOCH":"2026-03-09T08:18:35.998272","MEAN_MOTION":15.08855096,"ECCENTRICITY":0.00017821,"INCLINATION":53.2163,"RA_OF_ASC_NODE":115.6767,"ARG_OF_PERICENTER":53.3894,"MEAN_ANOMALY":306.7262,"EPHEMERIS_TYPE":0,"CLASSIFICATION_TYPE":"U","NORAD_CAT_ID":53423,"ELEMENT_SET_NO":999,"REV_AT_EPOCH":19857,"BSTAR":0.00013749711,"MEAN_MOTION_DOT":1.902e-5,"MEAN_MOTION_DDOT":0},{"OBJECT_NAME":"PEGASUS DEB","OBJECT_ID":"1994-029AFX","EPOCH":"2026-03-01T06:33:22.731264","MEAN_MOTION":14.85739755,"ECCENTRICITY":0.0106553,"INCLINATION":81.851,"RA_OF_ASC_NODE":257.2393,"ARG_OF_PERICENTER":271.4617,"MEAN_ANOMALY":87.4394,"EPHEMERIS_TYPE":0,"CLASSIFICATION_TYPE":"U","NORAD_CAT_ID":39924,"ELEMENT_SET_NO":999,"REV_AT_EPOCH":63095,"BSTAR":0.00041812,"MEAN_MOTION_DOT":4.045e-5,"MEAN_MOTION_DDOT":0}]
